start=new Date('2022-04-05T00:00:00.000Z').valueOf();
sats=[{"INCLINATION":"53.0487","MEAN_ANOMALY":"295.8983","CLASSIFICATION_TYPE":"U","ELEMENT_SET_NO":"999","EPOCH":"2022-04-04T13:44:25.708992","OBJECT_ID":"2021-018Q","BSTAR":"0.00016092000000","TLE_LINE1":"1 47801U 21018Q   22094.57251978  .00002115  00000-0  16092-3 0  9993","GP_ID":"200400641","COUNTRY_CODE":"US","TLE_LINE2":"2 47801  53.0487 199.2111 0001753  64.2187 295.8983 15.06379503 60152","ARG_OF_PERICENTER":"64.2187","FILE":"3387790","NORAD_CAT_ID":"47801","TIME_SYSTEM":"UTC","MEAN_MOTION":"15.06379503","REV_AT_EPOCH":"6015","ECCENTRICITY":"0.00017530","RA_OF_ASC_NODE":"199.2111","LAUNCH_DATE":"2021-03-11","EPHEMERIS_TYPE":"0","SITE":"AFETR","MEAN_MOTION_DDOT":"0.0000000000000","DECAY_DATE":null,"SEMIMAJOR_AXIS":"6925.411","MEAN_MOTION_DOT":"0.00002115","PERIOD":"95.593","REF_FRAME":"TEME","OBJECT_NAME":"STARLINK-2382","PERIAPSIS":"546.062","OBJECT_TYPE":"PAYLOAD","CENTER_NAME":"EARTH","RCS_SIZE":"LARGE","MEAN_ELEMENT_THEORY":"SGP4","APOAPSIS":"548.490"},{"MEAN_ELEMENT_THEORY":"SGP4","APOAPSIS":"548.344","PERIAPSIS":"546.168","OBJECT_NAME":"STARLINK-2383","RCS_SIZE":"LARGE","CENTER_NAME":"EARTH","OBJECT_TYPE":"PAYLOAD","PERIOD":"95.593","MEAN_MOTION_DOT":"0.00008986","DECAY_DATE":null,"SEMIMAJOR_AXIS":"6925.391","REF_FRAME":"TEME","LAUNCH_DATE":"2021-03-11","RA_OF_ASC_NODE":"219.1914","ECCENTRICITY":"0.00015710","REV_AT_EPOCH":"6022","MEAN_MOTION_DDOT":"0.0000000000000","SITE":"AFETR","EPHEMERIS_TYPE":"0","TIME_SYSTEM":"UTC","MEAN_MOTION":"15.06386055","ARG_OF_PERICENTER":"75.9841","NORAD_CAT_ID":"47802","FILE":"3387897","TLE_LINE2":"2 47802  53.0538 219.1914 0001571  75.9841 284.1322 15.06386055 60223","GP_ID":"200426040","TLE_LINE1":"1 47802U 21018R   22094.55224571  .00008986  00000-0  62160-3 0  9990","COUNTRY_CODE":"US","CLASSIFICATION_TYPE":"U","ELEMENT_SET_NO":"999","INCLINATION":"53.0538","MEAN_ANOMALY":"284.1322","BSTAR":"0.00062160000000","OBJECT_ID":"2021-018R","EPOCH":"2022-04-04T13:15:14.029344"},{"TLE_LINE2":"2 47803  53.0542 194.2207 0001827  56.1914 303.9248 15.06390902 60563","TLE_LINE1":"1 47803U 21018S   22094.54902172  .00021311  00000-0  14456-2 0  9991","GP_ID":"200424808","COUNTRY_CODE":"US","OBJECT_ID":"2021-018S","EPOCH":"2022-04-04T13:10:35.476608","BSTAR":"0.00144560000000","INCLINATION":"53.0542","MEAN_ANOMALY":"303.9248","CLASSIFICATION_TYPE":"U","ELEMENT_SET_NO":"999","MEAN_MOTION":"15.06390902","TIME_SYSTEM":"UTC","FILE":"3387897","NORAD_CAT_ID":"47803","ARG_OF_PERICENTER":"56.1914","REF_FRAME":"TEME","DECAY_DATE":null,"SEMIMAJOR_AXIS":"6925.376","PERIOD":"95.593","MEAN_MOTION_DOT":"0.00021311","SITE":"AFETR","EPHEMERIS_TYPE":"0","MEAN_MOTION_DDOT":"0.0000000000000","ECCENTRICITY":"0.00018270","RA_OF_ASC_NODE":"194.2207","REV_AT_EPOCH":"6056","LAUNCH_DATE":"2021-03-11","APOAPSIS":"548.507","MEAN_ELEMENT_THEORY":"SGP4","OBJECT_TYPE":"PAYLOAD","RCS_SIZE":"LARGE","CENTER_NAME":"EARTH","OBJECT_NAME":"STARLINK-2384","PERIAPSIS":"545.976"},{"NORAD_CAT_ID":"47804","FILE":"3388073","ARG_OF_PERICENTER":"51.9527","MEAN_MOTION":"15.06376218","TIME_SYSTEM":"UTC","BSTAR":"0.00032701000000","OBJECT_ID":"2021-018T","EPOCH":"2022-04-04T18:18:26.707968","CLASSIFICATION_TYPE":"U","ELEMENT_SET_NO":"999","INCLINATION":"53.0553","MEAN_ANOMALY":"308.1600","TLE_LINE2":"2 47804  53.0553 193.2611 0001528  51.9527 308.1600 15.06376218 60254","TLE_LINE1":"1 47804U 21018T   22094.76280912  .00004590  00000-0  32701-3 0  9991","GP_ID":"200430561","COUNTRY_CODE":"US","RCS_SIZE":"LARGE","CENTER_NAME":"EARTH","OBJECT_TYPE":"PAYLOAD","PERIAPSIS":"546.228","OBJECT_NAME":"STARLINK-2385","APOAPSIS":"548.345","MEAN_ELEMENT_THEORY":"SGP4","MEAN_MOTION_DDOT":"0.0000000000000","SITE":"AFETR","EPHEMERIS_TYPE":"0","LAUNCH_DATE":"2021-03-11","RA_OF_ASC_NODE":"193.2611","ECCENTRICITY":"0.00015280","REV_AT_EPOCH":"6025","REF_FRAME":"TEME","PERIOD":"95.594","MEAN_MOTION_DOT":"0.00004590","DECAY_DATE":null,"SEMIMAJOR_AXIS":"6925.421"},{"RCS_SIZE":"LARGE","CENTER_NAME":"EARTH","OBJECT_TYPE":"PAYLOAD","PERIAPSIS":"546.115","OBJECT_NAME":"STARLINK-2386","APOAPSIS":"548.368","MEAN_ELEMENT_THEORY":"SGP4","MEAN_MOTION_DDOT":"0.0000000000000","EPHEMERIS_TYPE":"0","SITE":"AFETR","LAUNCH_DATE":"2021-03-11","RA_OF_ASC_NODE":"194.1008","ECCENTRICITY":"0.00016270","REV_AT_EPOCH":"6057","REF_FRAME":"TEME","PERIOD":"95.593","MEAN_MOTION_DOT":"0.00001425","SEMIMAJOR_AXIS":"6925.376","DECAY_DATE":null,"NORAD_CAT_ID":"47805","FILE":"3387897","ARG_OF_PERICENTER":"55.2824","MEAN_MOTION":"15.06390897","TIME_SYSTEM":"UTC","BSTAR":"0.00011459000000","OBJECT_ID":"2021-018U","EPOCH":"2022-04-04T13:46:21.248256","ELEMENT_SET_NO":"999","CLASSIFICATION_TYPE":"U","MEAN_ANOMALY":"304.8318","INCLINATION":"53.0556","TLE_LINE2":"2 47805  53.0556 194.1008 0001627  55.2824 304.8318 15.06390897 60578","TLE_LINE1":"1 47805U 21018U   22094.57385704  .00001425  00000-0  11459-3 0  9997","GP_ID":"200425804","COUNTRY_CODE":"US"},{"MEAN_ELEMENT_THEORY":"SGP4","APOAPSIS":"548.583","PERIAPSIS":"545.843","OBJECT_NAME":"STARLINK-2387","CENTER_NAME":"EARTH","RCS_SIZE":"LARGE","OBJECT_TYPE":"PAYLOAD","MEAN_MOTION_DOT":"0.00022605","PERIOD":"95.592","DECAY_DATE":null,"SEMIMAJOR_AXIS":"6925.348","REF_FRAME":"TEME","LAUNCH_DATE":"2021-03-11","REV_AT_EPOCH":"6041","RA_OF_ASC_NODE":"209.2857","ECCENTRICITY":"0.00019780","MEAN_MOTION_DDOT":"0.0000000000000","SITE":"AFETR","EPHEMERIS_TYPE":"0","TIME_SYSTEM":"UTC","MEAN_MOTION":"15.06400148","ARG_OF_PERICENTER":"49.7208","NORAD_CAT_ID":"47806","FILE":"3387897","TLE_LINE1":"1 47806U 21018V   22094.53378999  .00022605  00000-0  15316-2 0  9990","COUNTRY_CODE":"US","GP_ID":"200425541","TLE_LINE2":"2 47806  53.0537 209.2857 0001978  49.7208 310.3953 15.06400148 60412","CLASSIFICATION_TYPE":"U","ELEMENT_SET_NO":"999","INCLINATION":"53.0537","MEAN_ANOMALY":"310.3953","BSTAR":"0.00153160000000","EPOCH":"2022-04-04T12:48:39.455136","OBJECT_ID":"2021-018V"},{"APOAPSIS":"548.453","MEAN_ELEMENT_THEORY":"SGP4","CENTER_NAME":"EARTH","RCS_SIZE":"LARGE","OBJECT_TYPE":"PAYLOAD","PERIAPSIS":"546.022","OBJECT_NAME":"STARLINK-2388","REF_FRAME":"TEME","MEAN_MOTION_DOT":"0.00002149","PERIOD":"95.593","DECAY_DATE":null,"SEMIMAJOR_AXIS":"6925.373","MEAN_MOTION_DDOT":"0.0000000000000","SITE":"AFETR","EPHEMERIS_TYPE":"0","LAUNCH_DATE":"2021-03-11","REV_AT_EPOCH":"6036","RA_OF_ASC_NODE":"184.0315","ECCENTRICITY":"0.00017550","MEAN_MOTION":"15.06392115","TIME_SYSTEM":"UTC","NORAD_CAT_ID":"47807","FILE":"3388166","ARG_OF_PERICENTER":"55.7375","TLE_LINE1":"1 47807U 21018W   22094.59048337  .00002149  00000-0  16314-3 0  9998","COUNTRY_CODE":"US","GP_ID":"200433898","TLE_LINE2":"2 47807  53.0562 184.0315 0001755  55.7375 304.3780 15.06392115 60364","BSTAR":"0.00016314000000","EPOCH":"2022-04-04T14:10:17.763168","OBJECT_ID":"2021-018W","CLASSIFICATION_TYPE":"U","ELEMENT_SET_NO":"999","INCLINATION":"53.0562","MEAN_ANOMALY":"304.3780"},{"APOAPSIS":"548.366","MEAN_ELEMENT_THEORY":"SGP4","CENTER_NAME":"EARTH","RCS_SIZE":"LARGE","OBJECT_TYPE":"PAYLOAD","PERIAPSIS":"546.153","OBJECT_NAME":"STARLINK-2389","REF_FRAME":"TEME","MEAN_MOTION_DOT":"0.00000408","PERIOD":"95.593","DECAY_DATE":null,"SEMIMAJOR_AXIS":"6925.395","MEAN_MOTION_DDOT":"0.0000000000000","SITE":"AFETR","EPHEMERIS_TYPE":"0","LAUNCH_DATE":"2021-03-11","REV_AT_EPOCH":"6041","ECCENTRICITY":"0.00015980","RA_OF_ASC_NODE":"209.2082","MEAN_MOTION":"15.06384931","TIME_SYSTEM":"UTC","NORAD_CAT_ID":"47808","FILE":"3387897","ARG_OF_PERICENTER":"75.7355","TLE_LINE1":"1 47808U 21018X   22094.55315707  .00000408  00000-0  46277-4 0  9991","COUNTRY_CODE":"US","GP_ID":"200425058","TLE_LINE2":"2 47808  53.0542 209.2082 0001598  75.7355 284.3811 15.06384931 60414","BSTAR":"0.00004627700000","EPOCH":"2022-04-04T13:16:32.770848","OBJECT_ID":"2021-018X","ELEMENT_SET_NO":"999","CLASSIFICATION_TYPE":"U","MEAN_ANOMALY":"284.3811","INCLINATION":"53.0542"},{"CENTER_NAME":"EARTH","RCS_SIZE":"LARGE","OBJECT_TYPE":"PAYLOAD","PERIAPSIS":"546.168","OBJECT_NAME":"STARLINK-2390","APOAPSIS":"548.406","MEAN_ELEMENT_THEORY":"SGP4","MEAN_MOTION_DDOT":"0.0000000000000","EPHEMERIS_TYPE":"0","SITE":"AFETR","LAUNCH_DATE":"2021-03-11","REV_AT_EPOCH":"5995","ECCENTRICITY":"0.00016160","RA_OF_ASC_NODE":"213.8739","REF_FRAME":"TEME","MEAN_MOTION_DOT":"0.00000515","PERIOD":"95.594","DECAY_DATE":null,"SEMIMAJOR_AXIS":"6925.422","NORAD_CAT_ID":"47809","FILE":"3388395","ARG_OF_PERICENTER":"61.9338","MEAN_MOTION":"15.06375988","TIME_SYSTEM":"UTC","BSTAR":"0.00005348300000","EPOCH":"2022-04-04T14:59:24.139680","OBJECT_ID":"2021-018Y","ELEMENT_SET_NO":"999","CLASSIFICATION_TYPE":"U","MEAN_ANOMALY":"298.1814","INCLINATION":"53.0553","GP_ID":"200438363","TLE_LINE1":"1 47809U 21018Y   22094.62458495  .00000515  00000-0  53483-4 0  9998","COUNTRY_CODE":"US","TLE_LINE2":"2 47809  53.0553 213.8739 0001616  61.9338 298.1814 15.06375988 59951"},{"DECAY_DATE":null,"SEMIMAJOR_AXIS":"6925.419","MEAN_MOTION_DOT":"-0.00001218","PERIOD":"95.594","REF_FRAME":"TEME","REV_AT_EPOCH":"6020","RA_OF_ASC_NODE":"224.0751","ECCENTRICITY":"0.00015530","LAUNCH_DATE":"2021-03-11","EPHEMERIS_TYPE":"0","SITE":"AFETR","MEAN_MOTION_DDOT":"0.0000000000000","MEAN_ELEMENT_THEORY":"SGP4","APOAPSIS":"548.359","OBJECT_NAME":"STARLINK-2391","PERIAPSIS":"546.208","OBJECT_TYPE":"PAYLOAD","CENTER_NAME":"EARTH","RCS_SIZE":"LARGE","COUNTRY_CODE":"US","TLE_LINE1":"1 47810U 21018Z   22094.58311377 -.00001218  00000-0 -62930-4 0  9992","GP_ID":"200426041","TLE_LINE2":"2 47810  53.0558 224.0751 0001553  75.8704 284.2458 15.06377066 60206","MEAN_ANOMALY":"284.2458","INCLINATION":"53.0558","ELEMENT_SET_NO":"999","CLASSIFICATION_TYPE":"U","EPOCH":"2022-04-04T13:59:41.029728","OBJECT_ID":"2021-018Z","BSTAR":"-0.00006293000000","TIME_SYSTEM":"UTC","MEAN_MOTION":"15.06377066","ARG_OF_PERICENTER":"75.8704","FILE":"3387897","NORAD_CAT_ID":"47810"}];
